{
  "type": "FeatureCollection",
  "features": [
    {
      "type": "Feature",
      "properties": {
        "norad_id": 24946,
        "name": "IRIDIUM 33",
        "group": "iridium-33-debris",
        "lat": -69.685614657225,
        "lon": 53.49335754130199,
        "alt_km": 785.9438212330806,
        "timestamp": "2025-12-24T09:46:31.388799+00:00",
        "meta_object_name": "IRIDIUM 33",
        "meta_object_id": "1997-051C",
        "meta_epoch": "2025-12-24T03:24:27.650016",
        "meta_mean_motion": 14.35044893,
        "meta_eccentricity": 0.0008384,
        "meta_inclination": 86.3858,
        "meta_ra_of_asc_node": 63.4351,
        "meta_arg_of_pericenter": 163.2863,
        "meta_mean_anomaly": 196.8611,
        "meta_ephemeris_type": 0,
        "meta_classification_type": "U",
        "meta_norad_cat_id": 24946,
        "meta_element_set_no": 999,
        "meta_rev_at_epoch": 47998,
        "meta_bstar": 0.00010793,
        "meta_mean_motion_dot": 3.27e-06,
        "meta_mean_motion_ddot": 0,
        "tle_line1": "1 24946U 97051C   25358.14198669  .00000327  00000+0  10793-3 0  9998",
        "tle_line2": "2 24946  86.3858  63.4351 0008384 163.2863 196.8611 14.35044893479989"
      },
      "geometry": {
        "type": "Point",
        "coordinates": [
          53.49335754130199,
          -69.685614657225
        ]
      }
    },
    {
      "type": "Feature",
      "properties": {
        "norad_id": 33773,
        "name": "IRIDIUM 33 DEB",
        "group": "iridium-33-debris",
        "lat": -52.12603157486365,
        "lon": -119.71186502689521,
        "alt_km": 759.3656135555057,
        "timestamp": "2025-12-24T09:46:31.388844+00:00",
        "meta_object_name": "IRIDIUM 33 DEB",
        "meta_object_id": "1997-051L",
        "meta_epoch": "2025-12-24T03:42:43.819776",
        "meta_mean_motion": 14.43280063,
        "meta_eccentricity": 0.0013256,
        "meta_inclination": 86.3998,
        "meta_ra_of_asc_node": 55.752,
        "meta_arg_of_pericenter": 113.5751,
        "meta_mean_anomaly": 246.6843,
        "meta_ephemeris_type": 0,
        "meta_classification_type": "U",
        "meta_norad_cat_id": 33773,
        "meta_element_set_no": 999,
        "meta_rev_at_epoch": 88512,
        "meta_bstar": 0.00028415,
        "meta_mean_motion_dot": 9.77e-06,
        "meta_mean_motion_ddot": 0,
        "tle_line1": "1 33773U 97051L   25358.15467384  .00000977  00000+0  28415-3 0  9991",
        "tle_line2": "2 33773  86.3998  55.7520 0013256 113.5751 246.6843 14.43280063885120"
      },
      "geometry": {
        "type": "Point",
        "coordinates": [
          -119.71186502689521,
          -52.12603157486365
        ]
      }
    },
    {
      "type": "Feature",
      "properties": {
        "norad_id": 33775,
        "name": "IRIDIUM 33 DEB",
        "group": "iridium-33-debris",
        "lat": -60.57386527073584,
        "lon": -128.9528315684521,
        "alt_km": 766.4089266231313,
        "timestamp": "2025-12-24T09:46:31.388860+00:00",
        "meta_object_name": "IRIDIUM 33 DEB",
        "meta_object_id": "1997-051N",
        "meta_epoch": "2025-12-23T13:17:41.922816",
        "meta_mean_motion": 14.41490246,
        "meta_eccentricity": 0.00152222,
        "meta_inclination": 86.3625,
        "meta_ra_of_asc_node": 44.9362,
        "meta_arg_of_pericenter": 122.4462,
        "meta_mean_anomaly": 12.5884,
        "meta_ephemeris_type": 0,
        "meta_classification_type": "U",
        "meta_norad_cat_id": 33775,
        "meta_element_set_no": 999,
        "meta_rev_at_epoch": 88296,
        "meta_bstar": 0.00028606428,
        "meta_mean_motion_dot": 9.49e-06,
        "meta_mean_motion_ddot": 0,
        "tle_line1": "1 33775U 97051N   25357.55395744  .00000949  00000+0  28606-3 0  9997",
        "tle_line2": "2 33775  86.3625  44.9362 0015222 122.4462  12.5884 14.41490246882964"
      },
      "geometry": {
        "type": "Point",
        "coordinates": [
          -128.9528315684521,
          -60.57386527073584
        ]
      }
    },
    {
      "type": "Feature",
      "properties": {
        "norad_id": 33776,
        "name": "IRIDIUM 33 DEB",
        "group": "iridium-33-debris",
        "lat": -25.52619726136479,
        "lon": 74.15461945279914,
        "alt_km": 781.1339293685551,
        "timestamp": "2025-12-24T09:46:31.388874+00:00",
        "meta_object_name": "IRIDIUM 33 DEB",
        "meta_object_id": "1997-051P",
        "meta_epoch": "2025-12-23T23:00:23.364864",
        "meta_mean_motion": 14.38253879,
        "meta_eccentricity": 0.0015616,
        "meta_inclination": 86.403,
        "meta_ra_of_asc_node": 76.0644,
        "meta_arg_of_pericenter": 154.6718,
        "meta_mean_anomaly": 18.0774,
        "meta_ephemeris_type": 0,
        "meta_classification_type": "U",
        "meta_norad_cat_id": 33776,
        "meta_element_set_no": 999,
        "meta_rev_at_epoch": 88243,
        "meta_bstar": 0.00026165,
        "meta_mean_motion_dot": 8.16e-06,
        "meta_mean_motion_ddot": 0,
        "tle_line1": "1 33776U 97051P   25357.95860376  .00000816  00000+0  26165-3 0  9991",
        "tle_line2": "2 33776  86.4030  76.0644 0015616 154.6718  18.0774 14.38253879882439"
      },
      "geometry": {
        "type": "Point",
        "coordinates": [
          74.15461945279914,
          -25.52619726136479
        ]
      }
    },
    {
      "type": "Feature",
      "properties": {
        "norad_id": 33777,
        "name": "IRIDIUM 33 DEB",
        "group": "iridium-33-debris",
        "lat": 47.49199824214264,
        "lon": -153.83653257951943,
        "alt_km": 701.3300969648926,
        "timestamp": "2025-12-24T09:46:31.388887+00:00",
        "meta_object_name": "IRIDIUM 33 DEB",
        "meta_object_id": "1997-051Q",
        "meta_epoch": "2025-12-24T02:34:12.487008",
        "meta_mean_motion": 14.55688811,
        "meta_eccentricity": 0.0006197,
        "meta_inclination": 86.3772,
        "meta_ra_of_asc_node": 30.2576,
        "meta_arg_of_pericenter": 200.9801,
        "meta_mean_anomaly": 159.1154,
        "meta_ephemeris_type": 0,
        "meta_classification_type": "U",
        "meta_norad_cat_id": 33777,
        "meta_element_set_no": 999,
        "meta_rev_at_epoch": 88699,
        "meta_bstar": 0.0008346,
        "meta_mean_motion_dot": 3.667e-05,
        "meta_mean_motion_ddot": 0,
        "tle_line1": "1 33777U 97051Q   25358.10708897  .00003667  00000+0  83460-3 0  9997",
        "tle_line2": "2 33777  86.3772  30.2576 0006197 200.9801 159.1154 14.55688811886991"
      },
      "geometry": {
        "type": "Point",
        "coordinates": [
          -153.83653257951943,
          47.49199824214264
        ]
      }
    },
    {
      "type": "Feature",
      "properties": {
        "norad_id": 33850,
        "name": "IRIDIUM 33 DEB",
        "group": "iridium-33-debris",
        "lat": -69.80777403966064,
        "lon": -144.81704031541827,
        "alt_km": 763.9474932606963,
        "timestamp": "2025-12-24T09:46:31.388900+00:00",
        "meta_object_name": "IRIDIUM 33 DEB",
        "meta_object_id": "1997-051T",
        "meta_epoch": "2025-12-24T00:35:08.831328",
        "meta_mean_motion": 14.42173299,
        "meta_eccentricity": 0.0013235,
        "meta_inclination": 86.3407,
        "meta_ra_of_asc_node": 25.3267,
        "meta_arg_of_pericenter": 127.4585,
        "meta_mean_anomaly": 295.8147,
        "meta_ephemeris_type": 0,
        "meta_classification_type": "U",
        "meta_norad_cat_id": 33850,
        "meta_element_set_no": 999,
        "meta_rev_at_epoch": 88315,
        "meta_bstar": 0.00038669,
        "meta_mean_motion_dot": 1.293e-05,
        "meta_mean_motion_ddot": 0,
        "tle_line1": "1 33850U 97051T   25358.02440777  .00001293  00000+0  38669-3 0  9994",
        "tle_line2": "2 33850  86.3407  25.3267 0013235 127.4585 295.8147 14.42173299883153"
      },
      "geometry": {
        "type": "Point",
        "coordinates": [
          -144.81704031541827,
          -69.80777403966064
        ]
      }
    },
    {
      "type": "Feature",
      "properties": {
        "norad_id": 33853,
        "name": "IRIDIUM 33 DEB",
        "group": "iridium-33-debris",
        "lat": -85.87614960988442,
        "lon": -119.26928988607763,
        "alt_km": 847.8449686641798,
        "timestamp": "2025-12-24T09:46:31.388913+00:00",
        "meta_object_name": "IRIDIUM 33 DEB",
        "meta_object_id": "1997-051W",
        "meta_epoch": "2025-12-24T00:14:15.619200",
        "meta_mean_motion": 13.99116212,
        "meta_eccentricity": 0.0207614,
        "meta_inclination": 86.0001,
        "meta_ra_of_asc_node": 344.8683,
        "meta_arg_of_pericenter": 201.0614,
        "meta_mean_anomaly": 225.2938,
        "meta_ephemeris_type": 0,
        "meta_classification_type": "U",
        "meta_norad_cat_id": 33853,
        "meta_element_set_no": 999,
        "meta_rev_at_epoch": 85503,
        "meta_bstar": 0.0011602,
        "meta_mean_motion_dot": 2.038e-05,
        "meta_mean_motion_ddot": 0,
        "tle_line1": "1 33853U 97051W   25358.00990300  .00002038  00000+0  11602-2 0  9992",
        "tle_line2": "2 33853  86.0001 344.8683 0207614 201.0614 225.2938 13.99116212855036"
      },
      "geometry": {
        "type": "Point",
        "coordinates": [
          -119.26928988607763,
          -85.87614960988442
        ]
      }
    }
  ]
}